[{"OBJECT_NAME":"STARLINK-33809","OBJECT_ID":"2025-071R","EPOCH":"2026-03-09T12:10:09.413760","MEAN_MOTION":15.30178871,"ECCENTRICITY":0.00012102,"INCLINATION":53.1583,"RA_OF_ASC_NODE":140.6134,"ARG_OF_PERICENTER":88.6701,"MEAN_ANOMALY":271.4439,"EPHEMERIS_TYPE":0,"CLASSIFICATION_TYPE":"U","NORAD_CAT_ID":63508,"ELEMENT_SET_NO":999,"REV_AT_EPOCH":5268,"BSTAR":0.0011179203,"MEAN_MOTION_DOT":0.00032875,"MEAN_MOTION_DDOT":0},{"OBJECT_NAME":"OBJECT BE","OBJECT_ID":"2025-313BE","EPOCH":"2026-03-09T16:43:59.380320","MEAN_MOTION":15.29801687,"ECCENTRICITY":0.00072083,"INCLINATION":97.3989,"RA_OF_ASC_NODE":145.3568,"ARG_OF_PERICENTER":335.3714,"MEAN_ANOMALY":24.7181,"EPHEMERIS_TYPE":0,"CLASSIFICATION_TYPE":"U","NORAD_CAT_ID":67482,"ELEMENT_SET_NO":999,"REV_AT_EPOCH":797,"BSTAR":0.0026504328,"MEAN_MOTION_DOT":0.00077178,"MEAN_MOTION_DDOT":0}]
